KUIPER-00232            
1 67148U 25301R   26017.08213325  .00019109  00000+0  52787-3 0  9998
2 67148  51.8746 314.3735 0003061 104.0053 256.1274 15.37070632  5802
KUIPER-00241            
1 67149U 25301S   26017.22073092  .00053849  00000+0  14702-2 0  9993
2 67149  51.8754 313.7985 0002364 155.4206 204.6893 15.36889334  6157
KUIPER-00245            
1 67150U 25301T   26017.25002315 -.01176063  00000+0 -57582-1 0  9997
2 67150  51.8811 314.5715 0008002 201.6569 197.5065 15.20504997  5314
KUIPER-00246            
1 67151U 25301U   26017.22649561  .00038306  00000+0  10573-2 0  9999
2 67151  51.8742 313.8385 0004085 183.9410 176.1545 15.36702494  5840
KUIPER-00247            
1 67152U 25301V   26017.07245974  .00027175  00000+0  80433-3 0  9998
2 67152  51.8654 315.0288 0011002 226.8299 133.1768 15.34637887  5793
KUIPER-00248            
1 67153U 25301W   26017.31782059  .00035952  00000+0  10472-2 0  9993
2 67153  51.8678 313.6860 0008966 206.1614 153.8919 15.35019820  6001
KUIPER-00249            
1 67154U 25301X   26017.18245971  .00018416  00000+0  52970-3 0  9992
2 67154  51.8664 314.2749 0008275 208.5951 151.4582 15.35809136  5818
KUIPER-00250            
1 67155U 25301Y   26017.23691810  .00030045  00000+0  84177-3 0  9992
2 67155  51.8735 313.9039 0006668 197.5440 162.5317 15.36342949  5858
